LEMUR-1                 
1 40044U 14033AL  25103.90834448  .00005053  00000+0  61912-3 0  9998
2 40044  97.7321 260.5718 0051531  46.3914 314.1558 14.82639981581804
LEMUR-2-GREENBERG       
1 42837U 17042N   25103.93640163  .00018837  00000+0  96210-3 0  9998
2 42837  97.3662 287.0151 0012699  80.1380 280.1286 15.16666531423039
LEMUR-2-ANDIS           
1 42838U 17042P   25103.92439158  .00022411  00000+0  11255-2 0  9996
2 42838  97.3606 286.6063 0013324  84.9869 275.2885 15.17215232423023
LEMUR-2-MONSON          
1 42839U 17042Q   25103.99488819  .00019573  00000+0  10632-2 0  9995
2 42839  97.3955 287.2070 0009131  67.5926 292.6273 15.14513491422936
LEMUR-2-FURIAUS         
1 42840U 17042R   25103.90696536  .00019800  00000+0  10535-2 0  9990
2 42840  97.3660 286.1399 0011612 129.2255 231.0011 15.15224013422927
LEMUR-2-PETERG          
1 42841U 17042S   25103.77251646  .00022728  00000+0  11605-2 0  9997
2 42841  97.3939 289.3525 0005664  66.6929 293.4900 15.16694671423017
LEMUR-2-DEMBITZ         
1 42842U 17042T   25103.96344883  .00019094  00000+0  10072-2 0  9994
2 42842  97.3772 288.4228 0010106  89.3676 270.8714 15.15551842423047
LEMUR-2-ZACHARY         
1 42845U 17042W   25103.78489213  .00030078  00000+0  12836-2 0  9999
2 42845  97.3733 291.1851 0006489 118.6553 241.5337 15.22834601423365
LEMUR-2-JIN-LUEN        
1 43182U 18014C   25103.63935612  .00047575  00000+0  15049-2 0  9996
2 43182  97.5630  14.4563 0010064  42.9820 317.2206 15.32578264394425
LEMUR-2-URAMCHANSOL     
1 43183U 18014D   25104.17859325  .00279332  00000+0  24943-2 0  9994
2 43183  97.5351  21.9409 0008060  64.7267 295.4827 15.67507661394964
LEMUR-2-KADI            
1 43184U 18014E   25103.25165481  .00037542  00000+0  12042-2 0  9998
2 43184  97.5237  12.7639 0008174  23.3908 336.7704 15.32204334394405
LEMUR-2-THENICKMOLO     
1 43185U 18014F   25103.84313537  .00087759  00000+0  17699-2 0  9999
2 43185  97.5667  18.1597 0004942  40.4409 319.7206 15.46209474394695
LEMUR-2-GUSTAVO         
1 43885U 18111K   25103.64559481  .01020197  45952-3  30398-2 0  9996
2 43885  97.5971  33.9018 0008895 131.0893 229.1150 15.92434666345993
LEMUR-2-ZO              
1 43886U 18111L   25103.70676546  .00407897  00000+0  23469-2 0  9993
2 43886  97.6005  32.3368 0006979  89.2391 270.9674 15.77581350345960
LEMUR-2-AMANDA-SVANTE   
1 48269U 21034B   25104.15087484  .00024774  00000+0  14021-2 0  9991
2 48269  97.6199 172.7897 0001574 304.7426  55.3656 15.13031784215782
LEMUR-2-SPECIAL-K       
1 48273U 21034F   25103.61905687  .00036306  00000+0  17655-2 0  9990
2 48273  97.6074 173.3569 0001088 103.5399 256.5956 15.18316321215816
LEMUR-2-EMBRIONOVIS     
1 56970U 23084AQ  25104.10987712  .00012234  00000+0  43959-3 0  9995
2 56970  97.5746 231.7158 0011365  42.3831 317.8284 15.28740463101961
LEMUR-2-MANO            
1 57390U 23100E   25103.72491983  .00059123  00000+0  23043-2 0  9997
2 57390  99.4571  26.0302 0010098  48.2430 311.9664 15.25692813 95739
LEMUR-2-DEVERILL-M-T    
1 57391U 23100F   25103.72710150  .00035411  00000+0  16995-2 0  9990
2 57391  99.4381  22.9211 0010929  38.9051 321.2962 15.18740333 95649
LEMUR-2-BASS            
1 58259U 23174D   25103.16035053  .00017188  00000+0  60013-3 0  9997
2 58259  97.4175 180.7669 0008127 266.4365  93.5946 15.29624093 79363
LEMUR-2-DILIGHTFUL      
1 58260U 23174E   25103.19706209  .00315489  00000+0  26796-2 0  9994
2 58260  97.4138 188.0574 0010418 246.0357 113.9814 15.68612697 79823
LEMUR-2-GOOD-VIBES      
1 58263U 23174H   25104.21847769  .00262704  00000+0  21878-2 0  9995
2 58263  97.3994 188.5748 0009235 247.2781 112.7505 15.69262998 79989
LEMUR-2-SANITA-VETRA    
1 58267U 23174M   25103.50143079  .00230653  00000+0  21069-2 0  9993
2 58267  97.4085 187.9602 0010368 248.3777 111.6379 15.67066533 79873
LEMUR-2-THE-CLEANER     
1 58333U 23174CF  25103.77785591  .00396329  00000+0  22140-2 0  9991
2 58333  97.4069 190.0444 0011508 246.1804 113.8256 15.78230646 80030
LEMUR-2-JK0903EM1407    
1 58336U 23174CJ  25103.68035085  .00016962  00000+0  52748-3 0  9990
2 58336  97.4177 183.2373 0007053 213.8631 146.2162 15.33368797 79570
LEMUR-2-MJR092620       
1 58340U 23174CN  25103.49217915  .00020025  00000+0  61521-3 0  9992
2 58340  97.4243 183.7640 0007415 214.1901 145.8865 15.33719549 79566
